ONEWEB-0033             
1 45142U 20008M   26189.96693955 -.00000498  00000+0 -14641-2 0  9994
2 45142  87.8810  31.9361 0002163  98.0271 262.1102 13.10369776311060
ONEWEB-0035             
1 45143U 20008N   26189.60568685  .00001391  00000+0  39494-2 0  9991
2 45143  87.8810  32.0006 0001478  92.5282 267.6015 13.10364336310742
ONEWEB-0036             
1 45144U 20008P   26189.96513520 -.00000480  00000+0 -14106-2 0  9992
2 45144  87.8827  31.9462 0001669  80.3648 279.7668 13.10366099311217
ONEWEB-0038             
1 45145U 20008Q   26189.91345669 -.00000006  00000+0 -53307-4 0  9997
2 45145  87.8895  16.7535 0001522 149.1230 210.9987 13.11414962313176
ONEWEB-0039             
1 45146U 20008R   26189.51219518 -.00000335  00000+0 -99518-3 0  9995
2 45146  87.8811  32.0178 0001341  72.4294 287.6980 13.10371529310953
ONEWEB-0040             
1 45147U 20008S   26189.27632150 -.00000489  00000+0 -14362-2 0  9993
2 45147  87.8812  32.0756 0001954  77.7823 282.3523 13.10369705310625
ONEWEB-0043             
1 45149U 20008U   26189.96539350 -.00000064  00000+0 -21925-3 0  9992
2 45149  87.8821  31.9272 0001379  74.9582 285.1698 13.10368367311033
ONEWEB-0044             
1 45150U 20008V   26189.61234429  .00000236  00000+0  63893-3 0  9994
2 45150  87.8818  31.9999 0001785  78.7944 281.3384 13.10378716311288
ONEWEB-0045             
1 45151U 20008W   26189.90823519  .00000188  00000+0  49371-3 0  9992
2 45151  87.8887  16.7359 0001719  89.0206 271.1119 13.11414762313254
ONEWEB-0047             
1 45152U 20008X   26189.60538251 -.00000307  00000+0 -91511-3 0  9994
2 45152  87.8827  31.9998 0001801  93.2433 266.8900 13.10375007311005
ONEWEB-0048             
1 45153U 20008Y   26189.60043623 -.00001295  00000+0 -37473-2 0  9992
2 45153  87.8828  32.0216 0001862  87.7478 272.3862 13.10365621310612
ONEWEB-0049             
1 45154U 20008Z   26189.60367749 -.00000323  00000+0 -96265-3 0  9997
2 45154  87.8818  32.0090 0002009  75.5666 284.5684 13.10374468310830
ONEWEB-0051             
1 45155U 20008AA  26189.75395173  .00000295  00000+0  79713-3 0  9991
2 45155  87.8881  16.7726 0001852  89.2574 270.8766 13.11415926313918
ONEWEB-0052             
1 45156U 20008AB  26189.92979753  .00000502  00000+0  14010-2 0  9992
2 45156  87.8820  31.9307 0001906  74.7035 285.4303 13.10376765310784
ONEWEB-0053             
1 45157U 20008AC  26189.27463035 -.00000402  00000+0 -11893-2 0  9999
2 45157  87.8813  32.0813 0001631  71.9842 288.1463 13.10369866310670
ONEWEB-0054             
1 45158U 20008AD  26189.92116589  .00000194  00000+0  52066-3 0  9995
2 45158  87.8825  31.9373 0001878  85.8669 274.2673 13.10377240310873
