{"fetched_at":"2026-07-09T18:16:42.472Z","source":"https://celestrak.org/NORAD/elements/gp.php?GROUP=oneweb&FORMAT=JSON","constellation":"oneweb","records":[{"OBJECT_NAME":"ONEWEB-0033","OBJECT_ID":"2020-008M","EPOCH":"2026-07-08T23:12:23.577120","CLASSIFICATION_TYPE":"U","MEAN_MOTION":13.10369776,"ECCENTRICITY":0.00021637,"INCLINATION":87.881,"RA_OF_ASC_NODE":31.9361,"ARG_OF_PERICENTER":98.0271,"MEAN_ANOMALY":262.1102,"EPHEMERIS_TYPE":0,"NORAD_CAT_ID":45142,"ELEMENT_SET_NO":999,"REV_AT_EPOCH":31106,"BSTAR":-0.0014640921,"MEAN_MOTION_DOT":-0.00000498,"MEAN_MOTION_DDOT":0},{"OBJECT_NAME":"ONEWEB-0035","OBJECT_ID":"2020-008N","EPOCH":"2026-07-08T14:32:11.343840","CLASSIFICATION_TYPE":"U","MEAN_MOTION":13.10364336,"ECCENTRICITY":0.00014789,"INCLINATION":87.881,"RA_OF_ASC_NODE":32.0006,"ARG_OF_PERICENTER":92.5282,"MEAN_ANOMALY":267.6015,"EPHEMERIS_TYPE":0,"NORAD_CAT_ID":45143,"ELEMENT_SET_NO":999,"REV_AT_EPOCH":31074,"BSTAR":0.0039494162,"MEAN_MOTION_DOT":0.00001391,"MEAN_MOTION_DDOT":0},{"OBJECT_NAME":"ONEWEB-0036","OBJECT_ID":"2020-008P","EPOCH":"2026-07-08T23:09:47.681280","CLASSIFICATION_TYPE":"U","MEAN_MOTION":13.10366099,"ECCENTRICITY":0.00016697,"INCLINATION":87.8827,"RA_OF_ASC_NODE":31.9462,"ARG_OF_PERICENTER":80.3648,"MEAN_ANOMALY":279.7668,"EPHEMERIS_TYPE":0,"NORAD_CAT_ID":45144,"ELEMENT_SET_NO":999,"REV_AT_EPOCH":31121,"BSTAR":-0.0014106472,"MEAN_MOTION_DOT":-0.0000048,"MEAN_MOTION_DDOT":0},{"OBJECT_NAME":"ONEWEB-0038","OBJECT_ID":"2020-008Q","EPOCH":"2026-07-08T21:55:22.658016","CLASSIFICATION_TYPE":"U","MEAN_MOTION":13.11414962,"ECCENTRICITY":0.00015225,"INCLINATION":87.8895,"RA_OF_ASC_NODE":16.7535,"ARG_OF_PERICENTER":149.123,"MEAN_ANOMALY":210.9987,"EPHEMERIS_TYPE":0,"NORAD_CAT_ID":45145,"ELEMENT_SET_NO":999,"REV_AT_EPOCH":31317,"BSTAR":-0.000053306961,"MEAN_MOTION_DOT":-6e-8,"MEAN_MOTION_DDOT":0},{"OBJECT_NAME":"ONEWEB-0039","OBJECT_ID":"2020-008R","EPOCH":"2026-07-08T12:17:33.663552","CLASSIFICATION_TYPE":"U","MEAN_MOTION":13.10371529,"ECCENTRICITY":0.00013419,"INCLINATION":87.8811,"RA_OF_ASC_NODE":32.0178,"ARG_OF_PERICENTER":72.4294,"MEAN_ANOMALY":287.698,"EPHEMERIS_TYPE":0,"NORAD_CAT_ID":45146,"ELEMENT_SET_NO":999,"REV_AT_EPOCH":31095,"BSTAR":-0.00099518226,"MEAN_MOTION_DOT":-0.00000335,"MEAN_MOTION_DDOT":0},{"OBJECT_NAME":"ONEWEB-0040","OBJECT_ID":"2020-008S","EPOCH":"2026-07-08T06:37:54.177600","CLASSIFICATION_TYPE":"U","MEAN_MOTION":13.10369705,"ECCENTRICITY":0.00019544,"INCLINATION":87.8812,"RA_OF_ASC_NODE":32.0756,"ARG_OF_PERICENTER":77.7823,"MEAN_ANOMALY":282.3523,"EPHEMERIS_TYPE":0,"NORAD_CAT_ID":45147,"ELEMENT_SET_NO":999,"REV_AT_EPOCH":31062,"BSTAR":-0.0014362187,"MEAN_MOTION_DOT":-0.00000489,"MEAN_MOTION_DDOT":0},{"OBJECT_NAME":"ONEWEB-0043","OBJECT_ID":"2020-008U","EPOCH":"2026-07-08T23:10:09.998400","CLASSIFICATION_TYPE":"U","MEAN_MOTION":13.10368367,"ECCENTRICITY":0.00013792,"INCLINATION":87.8821,"RA_OF_ASC_NODE":31.9272,"ARG_OF_PERICENTER":74.9582,"MEAN_ANOMALY":285.1698,"EPHEMERIS_TYPE":0,"NORAD_CAT_ID":45149,"ELEMENT_SET_NO":999,"REV_AT_EPOCH":31103,"BSTAR":-0.00021924573,"MEAN_MOTION_DOT":-6.4e-7,"MEAN_MOTION_DDOT":0},{"OBJECT_NAME":"ONEWEB-0044","OBJECT_ID":"2020-008V","EPOCH":"2026-07-08T14:41:46.546656","CLASSIFICATION_TYPE":"U","MEAN_MOTION":13.10378716,"ECCENTRICITY":0.00017859,"INCLINATION":87.8818,"RA_OF_ASC_NODE":31.9999,"ARG_OF_PERICENTER":78.7944,"MEAN_ANOMALY":281.3384,"EPHEMERIS_TYPE":0,"NORAD_CAT_ID":45150,"ELEMENT_SET_NO":999,"REV_AT_EPOCH":31128,"BSTAR":0.00063893277,"MEAN_MOTION_DOT":0.00000236,"MEAN_MOTION_DDOT":0},{"OBJECT_NAME":"ONEWEB-0045","OBJECT_ID":"2020-008W","EPOCH":"2026-07-08T21:47:51.520416","CLASSIFICATION_TYPE":"U","MEAN_MOTION":13.11414762,"ECCENTRICITY":0.00017192,"INCLINATION":87.8887,"RA_OF_ASC_NODE":16.7359,"ARG_OF_PERICENTER":89.0206,"MEAN_ANOMALY":271.1119,"EPHEMERIS_TYPE":0,"NORAD_CAT_ID":45151,"ELEMENT_SET_NO":999,"REV_AT_EPOCH":31325,"BSTAR":0.0004937058,"MEAN_MOTION_DOT":0.00000188,"MEAN_MOTION_DDOT":0},{"OBJECT_NAME":"ONEWEB-0047","OBJECT_ID":"2020-008X","EPOCH":"2026-07-08T14:31:45.048864","CLASSIFICATION_TYPE":"U","MEAN_MOTION":13.10375007,"ECCENTRICITY":0.00018018,"INCLINATION":87.8827,"RA_OF_ASC_NODE":31.9998,"ARG_OF_PERICENTER":93.2433,"MEAN_ANOMALY":266.89,"EPHEMERIS_TYPE":0,"NORAD_CAT_ID":45152,"ELEMENT_SET_NO":999,"REV_AT_EPOCH":31100,"BSTAR":-0.00091510709,"MEAN_MOTION_DOT":-0.00000307,"MEAN_MOTION_DDOT":0},{"OBJECT_NAME":"ONEWEB-0048","OBJECT_ID":"2020-008Y","EPOCH":"2026-07-08T14:24:37.690272","CLASSIFICATION_TYPE":"U","MEAN_MOTION":13.10365621,"ECCENTRICITY":0.00018622,"INCLINATION":87.8828,"RA_OF_ASC_NODE":32.0216,"ARG_OF_PERICENTER":87.7478,"MEAN_ANOMALY":272.3862,"EPHEMERIS_TYPE":0,"NORAD_CAT_ID":45153,"ELEMENT_SET_NO":999,"REV_AT_EPOCH":31061,"BSTAR":-0.0037472688,"MEAN_MOTION_DOT":-0.00001295,"MEAN_MOTION_DDOT":0},{"OBJECT_NAME":"ONEWEB-0049","OBJECT_ID":"2020-008Z","EPOCH":"2026-07-08T14:29:17.735136","CLASSIFICATION_TYPE":"U","MEAN_MOTION":13.10374468,"ECCENTRICITY":0.00020095,"INCLINATION":87.8818,"RA_OF_ASC_NODE":32.009,"ARG_OF_PERICENTER":75.5666,"MEAN_ANOMALY":284.5684,"EPHEMERIS_TYPE":0,"NORAD_CAT_ID":45154,"ELEMENT_SET_NO":999,"REV_AT_EPOCH":31083,"BSTAR":-0.00096265281,"MEAN_MOTION_DOT":-0.00000323,"MEAN_MOTION_DDOT":0},{"OBJECT_NAME":"ONEWEB-0051","OBJECT_ID":"2020-008AA","EPOCH":"2026-07-08T18:05:41.429472","CLASSIFICATION_TYPE":"U","MEAN_MOTION":13.11415926,"ECCENTRICITY":0.00018527,"INCLINATION":87.8881,"RA_OF_ASC_NODE":16.7726,"ARG_OF_PERICENTER":89.2574,"MEAN_ANOMALY":270.8766,"EPHEMERIS_TYPE":0,"NORAD_CAT_ID":45155,"ELEMENT_SET_NO":999,"REV_AT_EPOCH":31391,"BSTAR":0.00079712619,"MEAN_MOTION_DOT":0.00000295,"MEAN_MOTION_DDOT":0},{"OBJECT_NAME":"ONEWEB-0052","OBJECT_ID":"2020-008AB","EPOCH":"2026-07-08T22:18:54.506592","CLASSIFICATION_TYPE":"U","MEAN_MOTION":13.10376765,"ECCENTRICITY":0.00019069,"INCLINATION":87.882,"RA_OF_ASC_NODE":31.9307,"ARG_OF_PERICENTER":74.7035,"MEAN_ANOMALY":285.4303,"EPHEMERIS_TYPE":0,"NORAD_CAT_ID":45156,"ELEMENT_SET_NO":999,"REV_AT_EPOCH":31078,"BSTAR":0.0014010458,"MEAN_MOTION_DOT":0.00000502,"MEAN_MOTION_DDOT":0},{"OBJECT_NAME":"ONEWEB-0053","OBJECT_ID":"2020-008AC","EPOCH":"2026-07-08T06:35:28.062240","CLASSIFICATION_TYPE":"U","MEAN_MOTION":13.10369866,"ECCENTRICITY":0.00016317,"INCLINATION":87.8813,"RA_OF_ASC_NODE":32.0813,"ARG_OF_PERICENTER":71.9842,"MEAN_ANOMALY":288.1463,"EPHEMERIS_TYPE":0,"NORAD_CAT_ID":45157,"ELEMENT_SET_NO":999,"REV_AT_EPOCH":31067,"BSTAR":-0.001189348,"MEAN_MOTION_DOT":-0.00000402,"MEAN_MOTION_DDOT":0},{"OBJECT_NAME":"ONEWEB-0054","OBJECT_ID":"2020-008AD","EPOCH":"2026-07-08T22:06:28.732896","CLASSIFICATION_TYPE":"U","MEAN_MOTION":13.1037724,"ECCENTRICITY":0.00018788,"INCLINATION":87.8825,"RA_OF_ASC_NODE":31.9373,"ARG_OF_PERICENTER":85.8669,"MEAN_ANOMALY":274.2673,"EPHEMERIS_TYPE":0,"NORAD_CAT_ID":45158,"ELEMENT_SET_NO":999,"REV_AT_EPOCH":31087,"BSTAR":0.00052066059,"MEAN_MOTION_DOT":0.00000194,"MEAN_MOTION_DDOT":0}]}
